start=new Date('2023-02-28T00:00:00.000Z').valueOf();
sats=[{"ARG_OF_PERICENTER":"266.3107","INCLINATION":"43.0030","OBJECT_TYPE":"PAYLOAD","REV_AT_EPOCH":"1062","CLASSIFICATION_TYPE":"U","PERIAPSIS":"561.097","LAUNCH_DATE":"2022-12-28","GP_ID":"227197722","RCS_SIZE":"LARGE","OBJECT_NAME":"STARLINK-5388","MEAN_MOTION_DDOT":"0.0000000000000","OBJECT_ID":"2022-177AA","MEAN_MOTION_DOT":"-0.00000003","BSTAR":"0.00001506700000","CENTER_NAME":"EARTH","REF_FRAME":"TEME","MEAN_ELEMENT_THEORY":"SGP4","NORAD_CAT_ID":"54844","PERIOD":"95.899","RA_OF_ASC_NODE":"21.0597","SEMIMAJOR_AXIS":"6940.180","TLE_LINE1":"1 54844U 22177AA  23058.88216131 -.00000003  00000-0  15067-4 0  9999","SITE":"AFETR","MEAN_ANOMALY":"93.7579","DECAY_DATE":null,"FILE":"3846812","ECCENTRICITY":"0.00013670","EPOCH":"2023-02-27T21:10:18.737184","ELEMENT_SET_NO":"999","TIME_SYSTEM":"UTC","MEAN_MOTION":"15.01573625","TLE_LINE2":"2 54844  43.0030  21.0597 0001367 266.3107  93.7579 15.01573625 10627","APOAPSIS":"562.994","EPHEMERIS_TYPE":"0","COUNTRY_CODE":"US"},{"ARG_OF_PERICENTER":"255.2701","INCLINATION":"43.0043","REV_AT_EPOCH":"1062","OBJECT_TYPE":"PAYLOAD","CLASSIFICATION_TYPE":"U","PERIAPSIS":"558.342","LAUNCH_DATE":"2022-12-28","RCS_SIZE":"LARGE","GP_ID":"227198472","OBJECT_NAME":"STARLINK-5082","OBJECT_ID":"2022-177AB","MEAN_MOTION_DDOT":"0.0000000000000","MEAN_MOTION_DOT":"-0.00002618","BSTAR":"-0.00017884000000","REF_FRAME":"TEME","CENTER_NAME":"EARTH","MEAN_ELEMENT_THEORY":"SGP4","NORAD_CAT_ID":"54845","PERIOD":"95.839","SEMIMAJOR_AXIS":"6937.252","RA_OF_ASC_NODE":"21.3448","TLE_LINE1":"1 54845U 22177AB  23058.91800029 -.00002618  00000-0 -17884-3 0  9992","SITE":"AFETR","MEAN_ANOMALY":"104.8017","DECAY_DATE":null,"FILE":"3846812","ECCENTRICITY":"0.00011170","TIME_SYSTEM":"UTC","EPOCH":"2023-02-27T22:01:55.225056","ELEMENT_SET_NO":"999","MEAN_MOTION":"15.02524514","TLE_LINE2":"2 54845  43.0043  21.3448 0001117 255.2701 104.8017 15.02524514 10625","EPHEMERIS_TYPE":"0","COUNTRY_CODE":"US","APOAPSIS":"559.892"},{"RCS_SIZE":"LARGE","GP_ID":"227162278","PERIAPSIS":"558.154","LAUNCH_DATE":"2022-12-28","CLASSIFICATION_TYPE":"U","INCLINATION":"43.0046","ARG_OF_PERICENTER":"252.0850","OBJECT_TYPE":"PAYLOAD","REV_AT_EPOCH":"1051","NORAD_CAT_ID":"54846","BSTAR":"0.00014531000000","MEAN_ELEMENT_THEORY":"SGP4","REF_FRAME":"TEME","CENTER_NAME":"EARTH","MEAN_MOTION_DDOT":"0.0000000000000","OBJECT_ID":"2022-177AC","MEAN_MOTION_DOT":"0.00001760","OBJECT_NAME":"STARLINK-5360","DECAY_DATE":null,"FILE":"3846396","SITE":"AFETR","MEAN_ANOMALY":"107.9848","RA_OF_ASC_NODE":"25.2768","SEMIMAJOR_AXIS":"6937.209","TLE_LINE1":"1 54846U 22177AC  23058.18117720  .00001760  00000-0  14531-3 0  9992","PERIOD":"95.838","APOAPSIS":"559.994","COUNTRY_CODE":"US","EPHEMERIS_TYPE":"0","MEAN_MOTION":"15.02538328","TLE_LINE2":"2 54846  43.0046  25.2768 0001326 252.0850 107.9848 15.02538328 10511","ELEMENT_SET_NO":"999","EPOCH":"2023-02-27T04:20:53.710080","TIME_SYSTEM":"UTC","ECCENTRICITY":"0.00013260"},{"LAUNCH_DATE":"2022-12-28","PERIAPSIS":"398.444","GP_ID":"227164533","RCS_SIZE":"LARGE","INCLINATION":"43.0009","ARG_OF_PERICENTER":"254.6523","OBJECT_TYPE":"PAYLOAD","REV_AT_EPOCH":"984","CLASSIFICATION_TYPE":"U","BSTAR":"-0.01218300000000","REF_FRAME":"TEME","CENTER_NAME":"EARTH","MEAN_ELEMENT_THEORY":"SGP4","NORAD_CAT_ID":"54847","OBJECT_NAME":"STARLINK-5061","MEAN_MOTION_DDOT":"0.0000000000000","OBJECT_ID":"2022-177AD","MEAN_MOTION_DOT":"-0.00799527","SITE":"AFETR","MEAN_ANOMALY":"262.6707","DECAY_DATE":null,"FILE":"3846483","PERIOD":"92.546","RA_OF_ASC_NODE":"3.5066","SEMIMAJOR_AXIS":"6777.433","TLE_LINE1":"1 54847U 22177AD  23058.91668981 -.00799527  00000-0 -12183-1 0  9990","MEAN_MOTION":"15.55983355","TLE_LINE2":"2 54847  43.0009   3.5066 0001260 254.6523 262.6707 15.55983355  9842","APOAPSIS":"400.152","EPHEMERIS_TYPE":"0","COUNTRY_CODE":"US","ECCENTRICITY":"0.00012600","ELEMENT_SET_NO":"999","EPOCH":"2023-02-27T22:00:01.999584","TIME_SYSTEM":"UTC"},{"OBJECT_ID":"2022-177AE","MEAN_MOTION_DDOT":"0.0000000000000","MEAN_MOTION_DOT":"-0.01198875","OBJECT_NAME":"STARLINK-5432","NORAD_CAT_ID":"54848","BSTAR":"-0.06716800000000","MEAN_ELEMENT_THEORY":"SGP4","REF_FRAME":"TEME","CENTER_NAME":"EARTH","CLASSIFICATION_TYPE":"U","INCLINATION":"43.0019","ARG_OF_PERICENTER":"246.8835","REV_AT_EPOCH":"978","OBJECT_TYPE":"PAYLOAD","GP_ID":"227164243","RCS_SIZE":"LARGE","PERIAPSIS":"517.808","LAUNCH_DATE":"2022-12-28","TIME_SYSTEM":"UTC","ELEMENT_SET_NO":"999","EPOCH":"2023-02-27T22:00:01.999584","ECCENTRICITY":"0.00010760","EPHEMERIS_TYPE":"0","COUNTRY_CODE":"US","APOAPSIS":"519.293","MEAN_MOTION":"15.15800793","TLE_LINE2":"2 54848  43.0019   9.4845 0001076 246.8835 346.3477 15.15800793  9785","SEMIMAJOR_AXIS":"6896.685","RA_OF_ASC_NODE":"9.4845","TLE_LINE1":"1 54848U 22177AE  23058.91668981 -.01198875  00000-0 -67168-1 0  9994","PERIOD":"94.999","DECAY_DATE":null,"FILE":"3846471","SITE":"AFETR","MEAN_ANOMALY":"346.3477"},{"GP_ID":"227197973","RCS_SIZE":"LARGE","LAUNCH_DATE":"2022-12-28","PERIAPSIS":"558.093","CLASSIFICATION_TYPE":"U","OBJECT_TYPE":"PAYLOAD","REV_AT_EPOCH":"1062","INCLINATION":"43.0045","ARG_OF_PERICENTER":"264.1519","NORAD_CAT_ID":"54849","MEAN_ELEMENT_THEORY":"SGP4","CENTER_NAME":"EARTH","REF_FRAME":"TEME","BSTAR":"0.00008883600000","MEAN_MOTION_DOT":"0.00000997","MEAN_MOTION_DDOT":"0.0000000000000","OBJECT_ID":"2022-177AF","OBJECT_NAME":"STARLINK-5434","FILE":"3846812","DECAY_DATE":null,"MEAN_ANOMALY":"95.9169","SITE":"AFETR","TLE_LINE1":"1 54849U 22177AF  23058.90798403  .00000997  00000-0  88836-4 0  9999","RA_OF_ASC_NODE":"21.2681","SEMIMAJOR_AXIS":"6937.167","PERIOD":"95.837","APOAPSIS":"559.971","EPHEMERIS_TYPE":"0","COUNTRY_CODE":"US","TLE_LINE2":"2 54849  43.0045  21.2681 0001353 264.1519  95.9169 15.02552092 10627","MEAN_MOTION":"15.02552092","EPOCH":"2023-02-27T21:47:29.820192","ELEMENT_SET_NO":"999","TIME_SYSTEM":"UTC","ECCENTRICITY":"0.00013530"},{"OBJECT_NAME":"STARLINK-5087","MEAN_MOTION_DOT":"-0.01185339","OBJECT_ID":"2022-177AG","MEAN_MOTION_DDOT":"0.0000000000000","CENTER_NAME":"EARTH","REF_FRAME":"TEME","MEAN_ELEMENT_THEORY":"SGP4","BSTAR":"-0.06538300000000","NORAD_CAT_ID":"54850","REV_AT_EPOCH":"978","OBJECT_TYPE":"PAYLOAD","INCLINATION":"43.0022","ARG_OF_PERICENTER":"258.7523","CLASSIFICATION_TYPE":"U","LAUNCH_DATE":"2022-12-28","PERIAPSIS":"516.212","GP_ID":"227164667","RCS_SIZE":"LARGE","ECCENTRICITY":"0.00011580","TIME_SYSTEM":"UTC","EPOCH":"2023-02-27T22:00:01.999584","ELEMENT_SET_NO":"999","TLE_LINE2":"2 54850  43.0022   9.4174 0001158 258.7523   2.2432 15.16308666  9786","MEAN_MOTION":"15.16308666","EPHEMERIS_TYPE":"0","COUNTRY_CODE":"US","APOAPSIS":"517.809","PERIOD":"94.967","TLE_LINE1":"1 54850U 22177AG  23058.91668981 -.01185339  00000-0 -65383-1 0  9995","SEMIMAJOR_AXIS":"6895.145","RA_OF_ASC_NODE":"9.4174","MEAN_ANOMALY":"2.2432","SITE":"AFETR","FILE":"3846492","DECAY_DATE":null},{"DECAY_DATE":null,"FILE":"3846492","SITE":"AFETR","MEAN_ANOMALY":"358.6646","SEMIMAJOR_AXIS":"6895.435","RA_OF_ASC_NODE":"9.4333","TLE_LINE1":"1 54851U 22177AH  23058.91668981 -.01199439  00000-0 -66412-1 0  9996","PERIOD":"94.973","EPHEMERIS_TYPE":"0","COUNTRY_CODE":"US","APOAPSIS":"518.035","MEAN_MOTION":"15.16213068","TLE_LINE2":"2 54851  43.0020   9.4333 0001065 255.7745 358.6646 15.16213068  9788","TIME_SYSTEM":"UTC","ELEMENT_SET_NO":"999","EPOCH":"2023-02-27T22:00:01.999584","ECCENTRICITY":"0.00010650","RCS_SIZE":"LARGE","GP_ID":"227165158","PERIAPSIS":"516.566","LAUNCH_DATE":"2022-12-28","CLASSIFICATION_TYPE":"U","INCLINATION":"43.0020","ARG_OF_PERICENTER":"255.7745","REV_AT_EPOCH":"978","OBJECT_TYPE":"PAYLOAD","NORAD_CAT_ID":"54851","BSTAR":"-0.06641200000000","MEAN_ELEMENT_THEORY":"SGP4","CENTER_NAME":"EARTH","REF_FRAME":"TEME","OBJECT_ID":"2022-177AH","MEAN_MOTION_DDOT":"0.0000000000000","MEAN_MOTION_DOT":"-0.01199439","OBJECT_NAME":"STARLINK-5084"},{"TLE_LINE1":"1 54852U 22177AJ  23058.91668981 -.01191597  00000-0 -64557-1 0  9992","SEMIMAJOR_AXIS":"6893.207","RA_OF_ASC_NODE":"9.3334","PERIOD":"94.927","FILE":"3846498","DECAY_DATE":null,"MEAN_ANOMALY":"34.8560","SITE":"AFETR","TIME_SYSTEM":"UTC","ELEMENT_SET_NO":"999","EPOCH":"2023-02-27T22:00:01.999584","ECCENTRICITY":"0.00012580","COUNTRY_CODE":"US","EPHEMERIS_TYPE":"0","APOAPSIS":"515.939","TLE_LINE2":"2 54852  43.0022   9.3334 0001258 260.7764  34.8560 15.16948211  9785","MEAN_MOTION":"15.16948211","CLASSIFICATION_TYPE":"U","REV_AT_EPOCH":"978","OBJECT_TYPE":"PAYLOAD","ARG_OF_PERICENTER":"260.7764","INCLINATION":"43.0022","GP_ID":"227165239","RCS_SIZE":"LARGE","PERIAPSIS":"514.205","LAUNCH_DATE":"2022-12-28","MEAN_MOTION_DOT":"-0.01191597","OBJECT_ID":"2022-177AJ","MEAN_MOTION_DDOT":"0.0000000000000","OBJECT_NAME":"STARLINK-5418","NORAD_CAT_ID":"54852","REF_FRAME":"TEME","MEAN_ELEMENT_THEORY":"SGP4","CENTER_NAME":"EARTH","BSTAR":"-0.06455700000000"},{"MEAN_MOTION_DOT":"-0.01189507","OBJECT_ID":"2022-177AK","MEAN_MOTION_DDOT":"0.0000000000000","OBJECT_NAME":"STARLINK-5427","NORAD_CAT_ID":"54853","MEAN_ELEMENT_THEORY":"SGP4","REF_FRAME":"TEME","CENTER_NAME":"EARTH","BSTAR":"-0.06531300000000","CLASSIFICATION_TYPE":"U","REV_AT_EPOCH":"978","OBJECT_TYPE":"PAYLOAD","ARG_OF_PERICENTER":"250.0550","INCLINATION":"43.0021","RCS_SIZE":"LARGE","GP_ID":"227165367","LAUNCH_DATE":"2022-12-28","PERIAPSIS":"515.620","TIME_SYSTEM":"UTC","ELEMENT_SET_NO":"999","EPOCH":"2023-02-27T22:00:01.999584","ECCENTRICITY":"0.00012730","COUNTRY_CODE":"US","EPHEMERIS_TYPE":"0","APOAPSIS":"517.375","TLE_LINE2":"2 54853  43.0021   9.3942 0001273 250.0550  20.5564 15.16477814  9784","MEAN_MOTION":"15.16477814","TLE_LINE1":"1 54853U 22177AK  23058.91668981 -.01189507  00000-0 -65313-1 0  9992","SEMIMAJOR_AXIS":"6894.633","RA_OF_ASC_NODE":"9.3942","PERIOD":"94.957","FILE":"3846508","DECAY_DATE":null,"MEAN_ANOMALY":"20.5564","SITE":"AFETR"}];
